{"type": "FeatureCollection", "features": [ {"type": "Feature", "properties": {"norad_id": 31196, "name": "FENGYUN 1C DEB", "group": "fengyun-1c-debris", "lat": 7.942337856986309, "lon": -0.21991211938612076, "alt_km": 847.602299521438, "timestamp": "2025-12-13T18:50:04.712001+00:00", "meta": {"OBJECT_NAME": "FENGYUN 1C DEB", "OBJECT_ID": "1999-025BKA", "EPOCH": "2025-12-12T20:53:47.139936", "MEAN_MOTION": 14.25459598, "ECCENTRICITY": 0.00579035, "INCLINATION": 98.5269, "RA_OF_ASC_NODE": 0.0907, "ARG_OF_PERICENTER": 211.7627, "MEAN_ANOMALY": 148.0055, "EPHEMERIS_TYPE": 0, "CLASSIFICATION_TYPE": "U", "NORAD_CAT_ID": 31196, "ELEMENT_SET_NO": 999, "REV_AT_EPOCH": 63497, "BSTAR": 0.00075960645, "MEAN_MOTION_DOT": 1.783e-05, "MEAN_MOTION_DDOT": 0}, "tle": {"line1": "1 31196U 99025BKA 25346.87068449  .00001783  00000+0  75961-3 0  9990", "line2": "2 31196  98.5269   0.0907 0057903 211.7627 148.0055 14.25459598634971"}}, "geometry": {"type": "Point", "coordinates": [-0.21991211938612076, 7.942337856986309]}}, {"type": "Feature", "properties": {"norad_id": 31198, "name": "FENGYUN 1C DEB", "group": "fengyun-1c-debris", "lat": -19.18705888862166, "lon": -91.47148559003266, "alt_km": 1113.192575663571, "timestamp": "2025-12-13T18:50:04.712011+00:00", "meta": {"OBJECT_NAME": "FENGYUN 1C DEB", "OBJECT_ID": "1999-025BKC", "EPOCH": "2025-12-12T12:11:01.639104", "MEAN_MOTION": 13.75521321, "ECCENTRICITY": 0.02038515, "INCLINATION": 98.6127, "RA_OF_ASC_NODE": 90.3967, "ARG_OF_PERICENTER": 352.1752, "MEAN_ANOMALY": 7.6235, "EPHEMERIS_TYPE": 0, "CLASSIFICATION_TYPE": "U", "NORAD_CAT_ID": 31198, "ELEMENT_SET_NO": 999, "REV_AT_EPOCH": 62750, "BSTAR": 0.00014003049, "MEAN_MOTION_DOT": 1.18e-06, "MEAN_MOTION_DDOT": 0}, "tle": {"line1": "1 31198U 99025BKC 25346.50765786  .00000118  00000+0  14003-3 0  9991", "line2": "2 31198  98.6127  90.3967 0203851 352.1752   7.6235 13.75521321627508"}}, "geometry": {"type": "Point", "coordinates": [-91.47148559003266, -19.18705888862166]}}, {"type": "Feature", "properties": {"norad_id": 31199, "name": "FENGYUN 1C DEB", "group": "fengyun-1c-debris", "lat": 63.05471185490559, "lon": 168.09179692002655, "alt_km": 888.9684883433147, "timestamp": "2025-12-13T18:50:04.712022+00:00", "meta": {"OBJECT_NAME": "FENGYUN 1C DEB", "OBJECT_ID": "1999-025BKD", "EPOCH": "2025-12-12T21:59:11.126400", "MEAN_MOTION": 14.0998757, "ECCENTRICITY": 0.00635231, "INCLINATION": 98.715, "RA_OF_ASC_NODE": 329.6877, "ARG_OF_PERICENTER": 259.2449, "MEAN_ANOMALY": 129.8628, "EPHEMERIS_TYPE": 0, "CLASSIFICATION_TYPE": "U", "NORAD_CAT_ID": 31199, "ELEMENT_SET_NO": 999, "REV_AT_EPOCH": 96162, "BSTAR": 0.00026487607, "MEAN_MOTION_DOT": 4.33e-06, "MEAN_MOTION_DDOT": 0}, "tle": {"line1": "1 31199U 99025BKD 25346.91610100  .00000433  00000+0  26488-3 0  9996", "line2": "2 31199  98.7150 329.6877 0063523 259.2449 129.8628 14.09987570961621"}}, "geometry": {"type": "Point", "coordinates": [168.09179692002655, 63.05471185490559]}}, {"type": "Feature", "properties": {"norad_id": 31201, "name": "FENGYUN 1C DEB", "group": "fengyun-1c-debris", "lat": 62.5589965373998, "lon": -169.07051126250906, "alt_km": 741.9142119652024, "timestamp": "2025-12-13T18:50:04.712032+00:00", "meta": {"OBJECT_NAME": "FENGYUN 1C DEB", "OBJECT_ID": "1999-025BKF", "EPOCH": "2025-12-13T02:31:32.920032", "MEAN_MOTION": 14.35169256, "ECCENTRICITY": 0.01426652, "INCLINATION": 99.0026, "RA_OF_ASC_NODE": 207.9975, "ARG_OF_PERICENTER": 350.2281, "MEAN_ANOMALY": 163.3023, "EPHEMERIS_TYPE": 0, "CLASSIFICATION_TYPE": "U", "NORAD_CAT_ID": 31201, "ELEMENT_SET_NO": 999, "REV_AT_EPOCH": 97256, "BSTAR": 0.0013144229, "MEAN_MOTION_DOT": 4.165e-05, "MEAN_MOTION_DDOT": 0}, "tle": {"line1": "1 31201U 99025BKF 25347.10524213  .00004165  00000+0  13144-2 0  9991", "line2": "2 31201  99.0026 207.9975 0142665 350.2281 163.3023 14.35169256972568"}}, "geometry": {"type": "Point", "coordinates": [-169.07051126250906, 62.5589965373998]}}, {"type": "Feature", "properties": {"norad_id": 31202, "name": "FENGYUN 1C DEB", "group": "fengyun-1c-debris", "lat": 35.53893933646469, "lon": 28.1254747666219, "alt_km": 649.1945592072088, "timestamp": "2025-12-13T18:50:04.712043+00:00", "meta": {"OBJECT_NAME": "FENGYUN 1C DEB", "OBJECT_ID": "1999-025BKG", "EPOCH": "2025-12-12T02:21:05.641344", "MEAN_MOTION": 14.8407, "ECCENTRICITY": 0.00682667, "INCLINATION": 96.5745, "RA_OF_ASC_NODE": 31.4599, "ARG_OF_PERICENTER": 179.3192, "MEAN_ANOMALY": 210.6952, "EPHEMERIS_TYPE": 0, "CLASSIFICATION_TYPE": "U", "NORAD_CAT_ID": 31202, "ELEMENT_SET_NO": 999, "REV_AT_EPOCH": 99145, "BSTAR": 0.0016046046, "MEAN_MOTION_DOT": 0.00013923, "MEAN_MOTION_DDOT": 0}, "tle": {"line1": "1 31202U 99025BKG 25346.09798196  .00013923  00000+0  16046-2 0  9998", "line2": "2 31202  96.5745  31.4599 0068266 179.3192 210.6952 14.84070000991454"}}, "geometry": {"type": "Point", "coordinates": [28.1254747666219, 35.53893933646469]}}, {"type": "Feature", "properties": {"norad_id": 31205, "name": "FENGYUN 1C DEB", "group": "fengyun-1c-debris", "lat": 71.16698486195423, "lon": -70.53423851438114, "alt_km": 799.1588435916983, "timestamp": "2025-12-13T18:50:04.712054+00:00", "meta": {"OBJECT_NAME": "FENGYUN 1C DEB", "OBJECT_ID": "1999-025BKK", "EPOCH": "2025-12-12T05:13:28.524864", "MEAN_MOTION": 14.23957047, "ECCENTRICITY": 0.0161862, "INCLINATION": 99.229, "RA_OF_ASC_NODE": 79.351, "ARG_OF_PERICENTER": 198.9392, "MEAN_ANOMALY": 160.5721, "EPHEMERIS_TYPE": 0, "CLASSIFICATION_TYPE": "U", "NORAD_CAT_ID": 31205, "ELEMENT_SET_NO": 999, "REV_AT_EPOCH": 97203, "BSTAR": 0.00026250684, "MEAN_MOTION_DOT": 6.39e-06, "MEAN_MOTION_DDOT": 0}, "tle": {"line1": "1 31205U 99025BKK 25346.21769126  .00000639  00000+0  26251-3 0  9996", "line2": "2 31205  99.2290  79.3510 0161862 198.9392 160.5721 14.23957047972039"}}, "geometry": {"type": "Point", "coordinates": [-70.53423851438114, 71.16698486195423]}}, {"type": "Feature", "properties": {"norad_id": 31206, "name": "FENGYUN 1C DEB", "group": "fengyun-1c-debris", "lat": -11.696810868024828, "lon": 73.89717646514711, "alt_km": 815.2806801791266, "timestamp": "2025-12-13T18:50:04.712064+00:00", "meta": {"OBJECT_NAME": "FENGYUN 1C DEB", "OBJECT_ID": "1999-025BKL", "EPOCH": "2025-12-12T16:56:27.758976", "MEAN_MOTION": 14.40500289, "ECCENTRICITY": 0.00778834, "INCLINATION": 98.8431, "RA_OF_ASC_NODE": 254.6296, "ARG_OF_PERICENTER": 1.9404, "MEAN_ANOMALY": 358.2071, "EPHEMERIS_TYPE": 0, "CLASSIFICATION_TYPE": "U", "NORAD_CAT_ID": 31206, "ELEMENT_SET_NO": 999, "REV_AT_EPOCH": 97845, "BSTAR": 0.0011916236, "MEAN_MOTION_DOT": 3.883e-05, "MEAN_MOTION_DDOT": 0}, "tle": {"line1": "1 31206U 99025BKL 25346.70587684  .00003883  00000+0  11916-2 0  9993", "line2": "2 31206  98.8431 254.6296 0077883   1.9404 358.2071 14.40500289978454"}}, "geometry": {"type": "Point", "coordinates": [73.89717646514711, -11.696810868024828]}}, {"type": "Feature", "properties": {"norad_id": 31208, "name": "FENGYUN 1C DEB", "group": "fengyun-1c-debris", "lat": 27.818015450658482, "lon": -43.46467823733482, "alt_km": 690.2660037108699, "timestamp": "2025-12-13T18:50:04.712075+00:00", "meta": {"OBJECT_NAME": "FENGYUN 1C DEB", "OBJECT_ID": "1999-025BKN", "EPOCH": "2025-12-12T21:28:40.694880", "MEAN_MOTION": 14.61836366, "ECCENTRICITY": 0.00160899, "INCLINATION": 99.2395, "RA_OF_ASC_NODE": 130.6146, "ARG_OF_PERICENTER": 266.9466, "MEAN_ANOMALY": 244.5535, "EPHEMERIS_TYPE": 0, "CLASSIFICATION_TYPE": "U", "NORAD_CAT_ID": 31208, "ELEMENT_SET_NO": 999, "REV_AT_EPOCH": 70481, "BSTAR": 0.0040828347, "MEAN_MOTION_DOT": 0.00020437, "MEAN_MOTION_DDOT": 0}, "tle": {"line1": "1 31208U 99025BKN 25346.89491545  .00020437  00000+0  40828-2 0  9993", "line2": "2 31208  99.2395 130.6146 0016089 266.9466 244.5535 14.61836366704819"}}, "geometry": {"type": "Point", "coordinates": [-43.46467823733482, 27.818015450658482]}}, {"type": "Feature", "properties": {"norad_id": 31209, "name": "FENGYUN 1C DEB", "group": "fengyun-1c-debris", "lat": -73.4043892594855, "lon": 114.55898131550599, "alt_km": 746.0928909698478, "timestamp": "2025-12-13T18:50:04.712086+00:00", "meta": {"OBJECT_NAME": "FENGYUN 1C DEB", "OBJECT_ID": "1999-025BKP", "EPOCH": "2025-12-10T01:20:54.721824", "MEAN_MOTION": 14.43402924, "ECCENTRICITY": 0.00214737, "INCLINATION": 98.8828, "RA_OF_ASC_NODE": 79.0207, "ARG_OF_PERICENTER": 353.1421, "MEAN_ANOMALY": 6.9471, "EPHEMERIS_TYPE": 0, "CLASSIFICATION_TYPE": "U", "NORAD_CAT_ID": 31209, "ELEMENT_SET_NO": 999, "REV_AT_EPOCH": 64769, "BSTAR": 0.0038121705, "MEAN_MOTION_DOT": 0.00012883, "MEAN_MOTION_DDOT": 0}, "tle": {"line1": "1 31209U 99025BKP 25344.05618891  .00012883  00000+0  38122-2 0  9995", "line2": "2 31209  98.8828  79.0207 0021473 353.1421   6.9471 14.43402924647693"}}, "geometry": {"type": "Point", "coordinates": [114.55898131550599, -73.4043892594855]}}, {"type": "Feature", "properties": {"norad_id": 31210, "name": "FENGYUN 1C DEB", "group": "fengyun-1c-debris", "lat": 28.786433120000364, "lon": -16.051216971730273, "alt_km": 857.8200838353223, "timestamp": "2025-12-13T18:50:04.712097+00:00", "meta": {"OBJECT_NAME": "FENGYUN 1C DEB", "OBJECT_ID": "1999-025BKQ", "EPOCH": "2025-12-11T11:19:06.709152", "MEAN_MOTION": 14.11994038, "ECCENTRICITY": 0.00170964, "INCLINATION": 98.7187, "RA_OF_ASC_NODE": 346.5366, "ARG_OF_PERICENTER": 158.6297, "MEAN_ANOMALY": 359.0795, "EPHEMERIS_TYPE": 0, "CLASSIFICATION_TYPE": "U", "NORAD_CAT_ID": 31210, "ELEMENT_SET_NO": 999, "REV_AT_EPOCH": 95949, "BSTAR": 0.00055192367, "MEAN_MOTION_DOT": 9.69e-06, "MEAN_MOTION_DDOT": 0}, "tle": {"line1": "1 31210U 99025BKQ 25345.47160543  .00000969  00000+0  55192-3 0  9999", "line2": "2 31210  98.7187 346.5366 0017096 158.6297 359.0795 14.11994038959497"}}, "geometry": {"type": "Point", "coordinates": [-16.051216971730273, 28.786433120000364]}}]}